[{"OBJECT_NAME":"IRIDIUM 121","OBJECT_ID":"2017-039K","EPOCH":"2026-03-09T22:57:50.967360","MEAN_MOTION":14.34217682,"ECCENTRICITY":0.00021772,"INCLINATION":86.3973,"RA_OF_ASC_NODE":35.125,"ARG_OF_PERICENTER":87.8477,"MEAN_ANOMALY":272.2968,"EPHEMERIS_TYPE":0,"CLASSIFICATION_TYPE":"U","NORAD_CAT_ID":42812,"ELEMENT_SET_NO":999,"REV_AT_EPOCH":45560,"BSTAR":5.919812e-6,"MEAN_MOTION_DOT":3.6e-7,"MEAN_MOTION_DDOT":0},{"OBJECT_NAME":"PICOSAT 9","OBJECT_ID":"2001-043B","EPOCH":"2026-03-09T09:24:43.933824","MEAN_MOTION":14.31560499,"ECCENTRICITY":0.0009758,"INCLINATION":66.9996,"RA_OF_ASC_NODE":83.3837,"ARG_OF_PERICENTER":294.8796,"MEAN_ANOMALY":65.129,"EPHEMERIS_TYPE":0,"CLASSIFICATION_TYPE":"U","NORAD_CAT_ID":26930,"ELEMENT_SET_NO":999,"REV_AT_EPOCH":27644,"BSTAR":7.8064471e-5,"MEAN_MOTION_DOT":1.24e-6,"MEAN_MOTION_DDOT":0}]
